{"fetched_at":"2026-07-11T09:24:25.354Z","source":"https://celestrak.org/NORAD/elements/gp.php?NAME=JILIN&FORMAT=JSON","constellation":"jilin-1-kuanfu","records":[{"OBJECT_NAME":"JILIN-1 KUANFU 01","OBJECT_ID":"2020-003A","EPOCH":"2026-07-11T04:41:27.822624","CLASSIFICATION_TYPE":"U","MEAN_MOTION":15.10853832,"ECCENTRICITY":0.0008908,"INCLINATION":97.5021,"RA_OF_ASC_NODE":265.6829,"ARG_OF_PERICENTER":211.7465,"MEAN_ANOMALY":148.3229,"EPHEMERIS_TYPE":0,"NORAD_CAT_ID":45016,"ELEMENT_SET_NO":999,"REV_AT_EPOCH":35895,"BSTAR":0.00010691,"MEAN_MOTION_DOT":0.00001716,"MEAN_MOTION_DDOT":0},{"OBJECT_NAME":"JILIN-1 KUANFU-01B","OBJECT_ID":"2021-061A","EPOCH":"2026-07-11T03:57:46.508832","CLASSIFICATION_TYPE":"U","MEAN_MOTION":15.09793013,"ECCENTRICITY":0.0006415,"INCLINATION":97.5199,"RA_OF_ASC_NODE":267.9136,"ARG_OF_PERICENTER":351.5661,"MEAN_ANOMALY":8.5459,"EPHEMERIS_TYPE":0,"NORAD_CAT_ID":49003,"ELEMENT_SET_NO":999,"REV_AT_EPOCH":27696,"BSTAR":0.000095708,"MEAN_MOTION_DOT":0.00001483,"MEAN_MOTION_DDOT":0},{"OBJECT_NAME":"JILIN-1 KUANFU 01C","OBJECT_ID":"2022-048A","EPOCH":"2026-07-11T03:45:16.297632","CLASSIFICATION_TYPE":"U","MEAN_MOTION":15.09586557,"ECCENTRICITY":0.0017021,"INCLINATION":97.5251,"RA_OF_ASC_NODE":268.8937,"ARG_OF_PERICENTER":234.8708,"MEAN_ANOMALY":125.0926,"EPHEMERIS_TYPE":0,"NORAD_CAT_ID":52443,"ELEMENT_SET_NO":999,"REV_AT_EPOCH":23081,"BSTAR":0.0001172,"MEAN_MOTION_DOT":0.00001824,"MEAN_MOTION_DDOT":0},{"OBJECT_NAME":"JILIN-1 KUANFU 02A","OBJECT_ID":"2023-127A","EPOCH":"2026-07-11T04:17:43.075392","CLASSIFICATION_TYPE":"U","MEAN_MOTION":15.10793433,"ECCENTRICITY":0.0010014,"INCLINATION":97.5569,"RA_OF_ASC_NODE":285.6941,"ARG_OF_PERICENTER":252.2549,"MEAN_ANOMALY":107.7588,"EPHEMERIS_TYPE":0,"NORAD_CAT_ID":57696,"ELEMENT_SET_NO":999,"REV_AT_EPOCH":15925,"BSTAR":0.0001364,"MEAN_MOTION_DOT":0.00002202,"MEAN_MOTION_DDOT":0},{"OBJECT_NAME":"JILIN-01 KUANFU 02B 1","OBJECT_ID":"2024-169A","EPOCH":"2026-07-11T04:30:47.920896","CLASSIFICATION_TYPE":"U","MEAN_MOTION":15.0904241,"ECCENTRICITY":0.0001858,"INCLINATION":97.5577,"RA_OF_ASC_NODE":281.341,"ARG_OF_PERICENTER":359.7836,"MEAN_ANOMALY":0.3391,"EPHEMERIS_TYPE":0,"NORAD_CAT_ID":61189,"ELEMENT_SET_NO":999,"REV_AT_EPOCH":9944,"BSTAR":0.00016057,"MEAN_MOTION_DOT":0.00002478,"MEAN_MOTION_DDOT":0},{"OBJECT_NAME":"JILIN-01 KUANFU 02B 2","OBJECT_ID":"2024-169B","EPOCH":"2026-07-11T05:36:47.168064","CLASSIFICATION_TYPE":"U","MEAN_MOTION":15.09004485,"ECCENTRICITY":0.0004804,"INCLINATION":97.5571,"RA_OF_ASC_NODE":280.7716,"ARG_OF_PERICENTER":297.5771,"MEAN_ANOMALY":62.4969,"EPHEMERIS_TYPE":0,"NORAD_CAT_ID":61190,"ELEMENT_SET_NO":999,"REV_AT_EPOCH":9945,"BSTAR":0.00011789,"MEAN_MOTION_DOT":0.00001801,"MEAN_MOTION_DDOT":0},{"OBJECT_NAME":"JILIN-01 KUANFU 02B 3","OBJECT_ID":"2024-169C","EPOCH":"2026-07-11T04:14:19.314816","CLASSIFICATION_TYPE":"U","MEAN_MOTION":15.09043001,"ECCENTRICITY":0.0012677,"INCLINATION":97.5568,"RA_OF_ASC_NODE":281.148,"ARG_OF_PERICENTER":219.9541,"MEAN_ANOMALY":140.0756,"EPHEMERIS_TYPE":0,"NORAD_CAT_ID":61191,"ELEMENT_SET_NO":999,"REV_AT_EPOCH":9944,"BSTAR":0.00013162,"MEAN_MOTION_DOT":0.00002023,"MEAN_MOTION_DDOT":0},{"OBJECT_NAME":"JILIN-01 KUANFU 02B 4","OBJECT_ID":"2024-169D","EPOCH":"2026-07-11T05:04:46.845120","CLASSIFICATION_TYPE":"U","MEAN_MOTION":15.09023561,"ECCENTRICITY":0.0013651,"INCLINATION":97.5527,"RA_OF_ASC_NODE":280.7107,"ARG_OF_PERICENTER":177.0442,"MEAN_ANOMALY":183.087,"EPHEMERIS_TYPE":0,"NORAD_CAT_ID":61192,"ELEMENT_SET_NO":999,"REV_AT_EPOCH":9945,"BSTAR":0.00014061,"MEAN_MOTION_DOT":0.00002165,"MEAN_MOTION_DDOT":0},{"OBJECT_NAME":"JILIN-01 KUANFU 02B 5","OBJECT_ID":"2024-169E","EPOCH":"2026-07-11T04:46:14.350080","CLASSIFICATION_TYPE":"U","MEAN_MOTION":15.09058457,"ECCENTRICITY":0.0012867,"INCLINATION":97.5577,"RA_OF_ASC_NODE":281.4922,"ARG_OF_PERICENTER":201.4788,"MEAN_ANOMALY":158.5903,"EPHEMERIS_TYPE":0,"NORAD_CAT_ID":61193,"ELEMENT_SET_NO":999,"REV_AT_EPOCH":9945,"BSTAR":0.00017787,"MEAN_MOTION_DOT":0.00002757,"MEAN_MOTION_DDOT":0},{"OBJECT_NAME":"JILIN-01 KUANFU 02B 6","OBJECT_ID":"2024-169F","EPOCH":"2026-07-11T05:20:06.441792","CLASSIFICATION_TYPE":"U","MEAN_MOTION":15.09017795,"ECCENTRICITY":0.0015306,"INCLINATION":97.5556,"RA_OF_ASC_NODE":281.4092,"ARG_OF_PERICENTER":235.7268,"MEAN_ANOMALY":124.2512,"EPHEMERIS_TYPE":0,"NORAD_CAT_ID":61194,"ELEMENT_SET_NO":999,"REV_AT_EPOCH":9946,"BSTAR":0.00010792,"MEAN_MOTION_DOT":0.00001647,"MEAN_MOTION_DDOT":0}]}
