JILIN-1 KUANFU 01       
1 45016U 20003A   26192.19546091  .00001716  00000+0  10691-3 0  9990
2 45016  97.5021 265.6829 0008908 211.7465 148.3229 15.10853832358956
JILIN-1 KUANFU-01B      
1 49003U 21061A   26192.16512163  .00001483  00000+0  95708-4 0  9999
2 49003  97.5199 267.9136 0006415 351.5661   8.5459 15.09793013276964
JILIN-1 KUANFU 01C      
1 52443U 22048A   26192.15643863  .00001824  00000+0  11720-3 0  9998
2 52443  97.5251 268.8937 0017021 234.8708 125.0926 15.09586557230815
JILIN-1 KUANFU 02A      
1 57696U 23127A   26192.17897078  .00002202  00000+0  13640-3 0  9997
2 57696  97.5569 285.6941 0010014 252.2549 107.7588 15.10793433159250
JILIN-01 KUANFU 02B 1   
1 61189U 24169A   26192.18805464  .00002478  00000+0  16057-3 0  9995
2 61189  97.5577 281.3410 0001858 359.7836   0.3391 15.09042410 99447
JILIN-01 KUANFU 02B 2   
1 61190U 24169B   26192.23387926  .00001801  00000+0  11789-3 0  9997
2 61190  97.5571 280.7716 0004804 297.5771  62.4969 15.09004485 99457
JILIN-01 KUANFU 02B 3   
1 61191U 24169C   26192.17661244  .00002023  00000+0  13162-3 0  9993
2 61191  97.5568 281.1480 0012677 219.9541 140.0756 15.09043001 99440
JILIN-01 KUANFU 02B 4   
1 61192U 24169D   26192.21165330  .00002165  00000+0  14061-3 0  9990
2 61192  97.5527 280.7107 0013651 177.0442 183.0870 15.09023561 99458
JILIN-01 KUANFU 02B 5   
1 61193U 24169E   26192.19877720  .00002757  00000+0  17787-3 0  9996
2 61193  97.5577 281.4922 0012867 201.4788 158.5903 15.09058457 99456
JILIN-01 KUANFU 02B 6   
1 61194U 24169F   26192.22229678  .00001647  00000+0  10792-3 0  9990
2 61194  97.5556 281.4092 0015306 235.7268 124.2512 15.09017795 99463
